{"spkid": "20143487", "covariance": {"epoch": "2453559.5", "labels": ["e", "q", "tp", "node", "peri", "i"], "data": [["1.441781244094686E-15", "-2.9431337679307E-15", "-2.589342252769528E-13", "-3.385488788162078E-14", "-1.135007829433837E-13", "-1.076907469818507E-14"], ["-2.9431337679307E-15", "6.021988543461388E-15", "4.83646159019231E-13", "5.97380643095648E-14", "2.284701377416279E-13", "1.93039909492206E-14"], ["-2.589342252769528E-13", "4.83646159019231E-13", "6.27090412041376E-10", "1.136095310793501E-10", "9.432504414830442E-11", "1.074893225852744E-11"], ["-3.385488788162078E-14", "5.97380643095648E-14", "1.136095310793501E-10", "3.028812637035387E-9", "-2.980214362816433E-9", "3.621264987823742E-11"], ["-1.135007829433837E-13", "2.284701377416279E-13", "9.432504414830442E-11", "-2.980214362816433E-9", "3.030879891949929E-9", "-3.29281098730648E-11"], ["-1.076907469818507E-14", "1.93039909492206E-14", "1.074893225852744E-11", "3.621264987823742E-11", "-3.29281098730648E-11", "1.516503552393558E-10"]], "elements": [{"units": null, "value": ".7319119953564022", "title": "eccentricity", "sigma": 3.79707946202695e-08, "name": "e", "label": "e"}, {"label": "q", "units": "au", "title": "perihelion distance", "value": ".5690054239943695", "sigma": 7.76014725598773e-08, "name": "q"}, {"units": "TDB", "title": "time of perihelion passage", "value": "2453911.395109057637", "sigma": 2.50417733405878e-05, "name": "tp", "label": "tp"}, {"name": "om", "sigma": 5.50346494222993e-05, "value": "177.7745845628359", "title": "longitude of the ascending node", "units": "deg", "label": "node"}, {"label": "peri", "title": "argument of perihelion", "value": "88.0897672990356", "units": "deg", "sigma": 5.50534276130917e-05, "name": "w"}, {"units": "deg", "title": "inclination", "value": "4.990581248208792", "sigma": 1.23146398745297e-05, "name": "i", "label": "i"}]}, "elements": [{"label": "e", "units": null, "title": "eccentricity", "value": ".7295487524829584", "sigma": "3.896E-8", "name": "e"}, {"label": "a", "units": "au", "title": "semi-major axis", "value": "2.124852022281779", "name": "a", "sigma": "1.6737E-8"}, {"title": "perihelion distance", "value": ".5746688802152159", "units": "au", "name": "q", "sigma": "7.9873E-8", "label": "q"}, {"name": "i", "sigma": "1.2301E-5", "value": "4.988055165154119", "title": "inclination; angle with respect to x-y ecliptic plane", "units": "deg", "label": "i"}, {"units": "deg", "title": "longitude of the ascending node", "value": "176.9857604179737", "name": "om", "sigma": "5.4858E-5", "label": "node"}, {"units": "deg", "title": "argument of perihelion", "value": "88.9310920736914", "name": "w", "sigma": "5.4948E-5", "label": "peri"}, {"label": "M", "units": "deg", "title": "mean anomaly", "value": "160.9464423700555", "sigma": "2.5262E-5", "name": "ma"}, {"label": "tp", "title": "time of perihelion passage", "value": "2460694.709878187566", "units": "TDB", "sigma": "7.3584E-5", "name": "tp"}, {"name": "per", "sigma": "1.3367E-5", "title": "sidereal orbital period", "value": "1131.335624268222", "units": "d", "label": "period"}, {"units": "deg/d", "value": ".3182079590509293", "title": "mean motion", "name": "n", "sigma": "3.7597E-9", "label": "n"}, {"label": "Q", "title": "aphelion distance", "value": "3.675035164348342", "units": "au", "sigma": "2.8947E-8", "name": "ad"}], "epoch": "2461200.5"}